[
  {
    "OBJECT_NAME": "IRIDIUM 33",
    "OBJECT_ID": "1997-051C",
    "EPOCH": "2023-03-22T16:06:38.113344",
    "MEAN_MOTION": 14.33986484,
    "ECCENTRICITY": 0.0006516,
    "INCLINATION": 86.3852,
    "RA_OF_ASC_NODE": 125.8332,
    "ARG_OF_PERICENTER": 210.5437,
    "MEAN_ANOMALY": 149.538,
    "EPHEMERIS_TYPE": 0,
    "CLASSIFICATION_TYPE": "U",
    "NORAD_CAT_ID": 24946,
    "ELEMENT_SET_NO": 999,
    "REV_AT_EPOCH": 33555,
    "BSTAR": 0.00012636,
    "MEAN_MOTION_DOT": 3.72e-6,
    "MEAN_MOTION_DDOT": 0
  },
  {
    "OBJECT_NAME": "IRIDIUM 33 DEB",
    "OBJECT_ID": "1997-051L",
    "EPOCH": "2023-03-22T15:48:48.445056",
    "MEAN_MOTION": 14.39464555,
    "ECCENTRICITY": 0.0010966,
    "INCLINATION": 86.399,
    "RA_OF_ASC_NODE": 121.1537,
    "ARG_OF_PERICENTER": 187.3474,
    "MEAN_ANOMALY": 172.7566,
    "EPHEMERIS_TYPE": 0,
    "CLASSIFICATION_TYPE": "U",
    "NORAD_CAT_ID": 33773,
    "ELEMENT_SET_NO": 999,
    "REV_AT_EPOCH": 74000,
    "BSTAR": 0.00040561,
    "MEAN_MOTION_DOT": 1.283e-5,
    "MEAN_MOTION_DDOT": 0
  },
  {
    "OBJECT_NAME": "IRIDIUM 33 DEB",
    "OBJECT_ID": "1997-051N",
    "EPOCH": "2023-03-22T20:15:04.340736",
    "MEAN_MOTION": 14.36582252,
    "ECCENTRICITY": 0.0014431,
    "INCLINATION": 86.3624,
    "RA_OF_ASC_NODE": 112.6614,
    "ARG_OF_PERICENTER": 193.5671,
    "MEAN_ANOMALY": 339.4549,
    "EPHEMERIS_TYPE": 0,
    "CLASSIFICATION_TYPE": "U",
    "NORAD_CAT_ID": 33775,
    "ELEMENT_SET_NO": 999,
    "REV_AT_EPOCH": 73819,
    "BSTAR": 0.00067762,
    "MEAN_MOTION_DOT": 2.012e-5,
    "MEAN_MOTION_DDOT": 0
  },
  {
    "OBJECT_NAME": "IRIDIUM 33 DEB",
    "OBJECT_ID": "1997-051P",
    "EPOCH": "2023-03-22T16:54:18.393984",
    "MEAN_MOTION": 14.34968548,
    "ECCENTRICITY": 0.0013379,
    "INCLINATION": 86.4059,
    "RA_OF_ASC_NODE": 137.7581,
    "ARG_OF_PERICENTER": 212.4705,
    "MEAN_ANOMALY": 265.9219,
    "EPHEMERIS_TYPE": 0,
    "CLASSIFICATION_TYPE": "U",
    "NORAD_CAT_ID": 33776,
    "ELEMENT_SET_NO": 999,
    "REV_AT_EPOCH": 73782,
    "BSTAR": 0.00034238,
    "MEAN_MOTION_DOT": 9.94e-6,
    "MEAN_MOTION_DDOT": 0
  },
  {
    "OBJECT_NAME": "IRIDIUM 33 DEB",
    "OBJECT_ID": "1997-051Q",
    "EPOCH": "2023-03-23T03:31:58.461888",
    "MEAN_MOTION": 14.44449104,
    "ECCENTRICITY": 0.0010066,
    "INCLINATION": 86.379,
    "RA_OF_ASC_NODE": 103.6274,
    "ARG_OF_PERICENTER": 12.885,
    "MEAN_ANOMALY": 347.2606,
    "EPHEMERIS_TYPE": 0,
    "CLASSIFICATION_TYPE": "U",
    "NORAD_CAT_ID": 33777,
    "ELEMENT_SET_NO": 999,
    "REV_AT_EPOCH": 74119,
    "BSTAR": 0.0010573,
    "MEAN_MOTION_DOT": 3.667e-5,
    "MEAN_MOTION_DDOT": 0
  },
  {
    "OBJECT_NAME": "IRIDIUM 33 DEB",
    "OBJECT_ID": "1997-051S",
    "EPOCH": "2023-03-23T03:38:48.096384",
    "MEAN_MOTION": 14.92460969,
    "ECCENTRICITY": 0.0039045,
    "INCLINATION": 86.0803,
    "RA_OF_ASC_NODE": 309.3249,
    "ARG_OF_PERICENTER": 196.988,
    "MEAN_ANOMALY": 163.0044,
    "EPHEMERIS_TYPE": 0,
    "CLASSIFICATION_TYPE": "U",
    "NORAD_CAT_ID": 33849,
    "ELEMENT_SET_NO": 999,
    "REV_AT_EPOCH": 73923,
    "BSTAR": 0.010411,
    "MEAN_MOTION_DOT": 0.0010984,
    "MEAN_MOTION_DDOT": 0
  },
  {
    "OBJECT_NAME": "IRIDIUM 33 DEB",
    "OBJECT_ID": "1997-051T",
    "EPOCH": "2023-03-23T13:21:26.707104",
    "MEAN_MOTION": 14.37161504,
    "ECCENTRICITY": 0.0011557,
    "INCLINATION": 86.3379,
    "RA_OF_ASC_NODE": 96.0567,
    "ARG_OF_PERICENTER": 191.3431,
    "MEAN_ANOMALY": 296.2922,
    "EPHEMERIS_TYPE": 0,
    "CLASSIFICATION_TYPE": "U",
    "NORAD_CAT_ID": 33850,
    "ELEMENT_SET_NO": 999,
    "REV_AT_EPOCH": 73838,
    "BSTAR": 0.00064012,
    "MEAN_MOTION_DOT": 1.923e-5,
    "MEAN_MOTION_DDOT": 0
  },
  {
    "OBJECT_NAME": "IRIDIUM 33 DEB",
    "OBJECT_ID": "1997-051W",
    "EPOCH": "2023-03-22T09:37:04.545120",
    "MEAN_MOTION": 13.92356522,
    "ECCENTRICITY": 0.0229336,
    "INCLINATION": 86,
    "RA_OF_ASC_NODE": 63.8884,
    "ARG_OF_PERICENTER": 36.7659,
    "MEAN_ANOMALY": 113.5942,
    "EPHEMERIS_TYPE": 0,
    "CLASSIFICATION_TYPE": "U",
    "NORAD_CAT_ID": 33853,
    "ELEMENT_SET_NO": 999,
    "REV_AT_EPOCH": 71449,
    "BSTAR": 0.0013462,
    "MEAN_MOTION_DOT": 2.162e-5,
    "MEAN_MOTION_DDOT": 0
  },
  {
    "OBJECT_NAME": "IRIDIUM 33 DEB",
    "OBJECT_ID": "1997-051X",
    "EPOCH": "2023-03-23T09:10:39.154368",
    "MEAN_MOTION": 14.84140512,
    "ECCENTRICITY": 0.0005355,
    "INCLINATION": 86.2175,
    "RA_OF_ASC_NODE": 303.5683,
    "ARG_OF_PERICENTER": 180.0957,
    "MEAN_ANOMALY": 302.2482,
    "EPHEMERIS_TYPE": 0,
    "CLASSIFICATION_TYPE": "U",
    "NORAD_CAT_ID": 33854,
    "ELEMENT_SET_NO": 999,
    "REV_AT_EPOCH": 74998,
    "BSTAR": 0.0039352,
    "MEAN_MOTION_DOT": 0.00033014,
    "MEAN_MOTION_DDOT": 0
  },
  {
    "OBJECT_NAME": "IRIDIUM 33 DEB",
    "OBJECT_ID": "1997-051AC",
    "EPOCH": "2023-03-22T17:29:46.011264",
    "MEAN_MOTION": 14.47767941,
    "ECCENTRICITY": 0.0049267,
    "INCLINATION": 86.3319,
    "RA_OF_ASC_NODE": 91.3344,
    "ARG_OF_PERICENTER": 170.544,
    "MEAN_ANOMALY": 189.6704,
    "EPHEMERIS_TYPE": 0,
    "CLASSIFICATION_TYPE": "U",
    "NORAD_CAT_ID": 33859,
    "ELEMENT_SET_NO": 999,
    "REV_AT_EPOCH": 73892,
    "BSTAR": 0.0025498,
    "MEAN_MOTION_DOT": 9.591e-5,
    "MEAN_MOTION_DDOT": 0
  },
  {
    "OBJECT_NAME": "IRIDIUM 33 DEB",
    "OBJECT_ID": "1997-051AD",
    "EPOCH": "2023-03-23T08:07:46.155360",
    "MEAN_MOTION": 14.48515546,
    "ECCENTRICITY": 0.0016354,
    "INCLINATION": 86.3858,
    "RA_OF_ASC_NODE": 99.8652,
    "ARG_OF_PERICENTER": 94.3245,
    "MEAN_ANOMALY": 328.4812,
    "EPHEMERIS_TYPE": 0,
    "CLASSIFICATION_TYPE": "U",
    "NORAD_CAT_ID": 33860,
    "ELEMENT_SET_NO": 999,
    "REV_AT_EPOCH": 74242,
    "BSTAR": 0.0015015,
    "MEAN_MOTION_DOT": 5.664e-5,
    "MEAN_MOTION_DDOT": 0
  },
  {
    "OBJECT_NAME": "IRIDIUM 33 DEB",
    "OBJECT_ID": "1997-051AF",
    "EPOCH": "2023-03-23T12:42:46.048896",
    "MEAN_MOTION": 14.50325724,
    "ECCENTRICITY": 0.0063119,
    "INCLINATION": 86.4091,
    "RA_OF_ASC_NODE": 108.5015,
    "ARG_OF_PERICENTER": 203.0502,
    "MEAN_ANOMALY": 287.6975,
    "EPHEMERIS_TYPE": 0,
    "CLASSIFICATION_TYPE": "U",
    "NORAD_CAT_ID": 33862,
    "ELEMENT_SET_NO": 999,
    "REV_AT_EPOCH": 74317,
    "BSTAR": 0.001308,
    "MEAN_MOTION_DOT": 5.252e-5,
    "MEAN_MOTION_DDOT": 0
  },
  {
    "OBJECT_NAME": "IRIDIUM 33 DEB",
    "OBJECT_ID": "1997-051AH",
    "EPOCH": "2023-03-22T21:27:35.608032",
    "MEAN_MOTION": 14.58094243,
    "ECCENTRICITY": 0.0009779,
    "INCLINATION": 86.2774,
    "RA_OF_ASC_NODE": 19.7032,
    "ARG_OF_PERICENTER": 14.9989,
    "MEAN_ANOMALY": 50.1613,
    "EPHEMERIS_TYPE": 0,
    "CLASSIFICATION_TYPE": "U",
    "NORAD_CAT_ID": 33864,
    "ELEMENT_SET_NO": 999,
    "REV_AT_EPOCH": 74374,
    "BSTAR": 0.0023829,
    "MEAN_MOTION_DOT": 0.00011002,
    "MEAN_MOTION_DDOT": 0
  },
  {
    "OBJECT_NAME": "IRIDIUM 33 DEB",
    "OBJECT_ID": "1997-051AJ",
    "EPOCH": "2023-03-23T09:01:55.355232",
    "MEAN_MOTION": 15.0180433,
    "ECCENTRICITY": 0.003072,
    "INCLINATION": 86.3341,
    "RA_OF_ASC_NODE": 29.1498,
    "ARG_OF_PERICENTER": 87.8707,
    "MEAN_ANOMALY": 39.7162,
    "EPHEMERIS_TYPE": 0,
    "CLASSIFICATION_TYPE": "U",
    "NORAD_CAT_ID": 33865,
    "ELEMENT_SET_NO": 999,
    "REV_AT_EPOCH": 74877,
    "BSTAR": 0.0093018,
    "MEAN_MOTION_DOT": 0.00124402,
    "MEAN_MOTION_DDOT": 0
  },
  {
    "OBJECT_NAME": "IRIDIUM 33 DEB",
    "OBJECT_ID": "1997-051AK",
    "EPOCH": "2023-03-22T17:24:16.467840",
    "MEAN_MOTION": 14.16879171,
    "ECCENTRICITY": 0.0123959,
    "INCLINATION": 86.3059,
    "RA_OF_ASC_NODE": 151.1305,
    "ARG_OF_PERICENTER": 96.7305,
    "MEAN_ANOMALY": 21.2719,
    "EPHEMERIS_TYPE": 0,
    "CLASSIFICATION_TYPE": "U",
    "NORAD_CAT_ID": 33866,
    "ELEMENT_SET_NO": 999,
    "REV_AT_EPOCH": 72667,
    "BSTAR": 0.0020026,
    "MEAN_MOTION_DOT": 4.347e-5,
    "MEAN_MOTION_DDOT": 0
  },
  {
    "OBJECT_NAME": "IRIDIUM 33 DEB",
    "OBJECT_ID": "1997-051AL",
    "EPOCH": "2023-03-23T05:35:54.890880",
    "MEAN_MOTION": 14.63187152,
    "ECCENTRICITY": 0.001747,
    "INCLINATION": 86.409,
    "RA_OF_ASC_NODE": 81.882,
    "ARG_OF_PERICENTER": 294.8111,
    "MEAN_ANOMALY": 65.1284,
    "EPHEMERIS_TYPE": 0,
    "CLASSIFICATION_TYPE": "U",
    "NORAD_CAT_ID": 33867,
    "ELEMENT_SET_NO": 999,
    "REV_AT_EPOCH": 74732,
    "BSTAR": 0.0030475,
    "MEAN_MOTION_DOT": 0.00015757,
    "MEAN_MOTION_DDOT": 0
  },
  {
    "OBJECT_NAME": "IRIDIUM 33 DEB",
    "OBJECT_ID": "1997-051AN",
    "EPOCH": "2023-03-23T02:23:27.600000",
    "MEAN_MOTION": 14.60830171,
    "ECCENTRICITY": 0.0057128,
    "INCLINATION": 86.3498,
    "RA_OF_ASC_NODE": 117.4581,
    "ARG_OF_PERICENTER": 233.9664,
    "MEAN_ANOMALY": 125.6245,
    "EPHEMERIS_TYPE": 0,
    "CLASSIFICATION_TYPE": "U",
    "NORAD_CAT_ID": 33869,
    "ELEMENT_SET_NO": 999,
    "REV_AT_EPOCH": 73742,
    "BSTAR": 0.0076213,
    "MEAN_MOTION_DOT": 0.00038291,
    "MEAN_MOTION_DDOT": 0
  },
  {
    "OBJECT_NAME": "IRIDIUM 33 DEB",
    "OBJECT_ID": "1997-051AP",
    "EPOCH": "2023-03-22T21:07:30.016992",
    "MEAN_MOTION": 14.37462581,
    "ECCENTRICITY": 0.0020966,
    "INCLINATION": 86.3756,
    "RA_OF_ASC_NODE": 121.7374,
    "ARG_OF_PERICENTER": 222.6538,
    "MEAN_ANOMALY": 312.1814,
    "EPHEMERIS_TYPE": 0,
    "CLASSIFICATION_TYPE": "U",
    "NORAD_CAT_ID": 33870,
    "ELEMENT_SET_NO": 999,
    "REV_AT_EPOCH": 73791,
    "BSTAR": 0.00088948,
    "MEAN_MOTION_DOT": 2.686e-5,
    "MEAN_MOTION_DDOT": 0
  }
]